ONEWEB-0389             
1 50469U 21132A   24261.71525890  .00000028  00000+0  39194-4 0  9994
2 50469  87.9135 132.8510 0001898  65.7976 294.3354 13.17650827134137
ONEWEB-0390             
1 50470U 21132B   24261.41312648  .00000225  00000+0  54602-3 0  9997
2 50470  87.9135 132.9184 0002091  76.8506 283.2859 13.17651299134091
ONEWEB-0391             
1 50471U 21132C   24261.71849404  .00000070  00000+0  14768-3 0  9993
2 50471  87.9144 132.8484 0001788  66.4377 293.6942 13.17647486134133
ONEWEB-0392             
1 50472U 21132D   24261.67162155  .00000005  00000+0 -20467-4 0  9993
2 50472  87.9128 132.8442 0001923  61.5751 298.5574 13.17652031134163
ONEWEB-0393             
1 50473U 21132E   24261.72185978  .00000127  00000+0  29508-3 0  9996
2 50473  87.9139 132.8204 0001869  71.1760 288.9574 13.17649581134167
ONEWEB-0394             
1 50474U 21132F   24262.11464691  .00000142  00000+0  32694-3 0  9990
2 50474  87.9057 102.2644 0001660  80.5042 279.6277 13.18686698138906
ONEWEB-0395             
1 50475U 21132G   24261.70751950 -.00000367  00000+0 -10719-2 0  9996
2 50475  87.8966 148.0546 0002008  67.3867 292.7473 13.11414605132165
ONEWEB-0396             
1 50476U 21132H   24261.57717526 -.00001975  00000+0 -50416-2 0  9997
2 50476  87.9065 102.3734 0001811  76.6705 283.4628 13.18697342137605
ONEWEB-0397             
1 50477U 21132J   24262.12255767  .00000176  00000+0  41420-3 0  9990
2 50477  87.9062 102.2660 0001490  86.5781 273.5522 13.18685279138922
ONEWEB-0398             
1 50478U 21132K   24262.13308616 -.00002665  00000+0 -75565-2 0  9997
2 50478  87.8959 147.9461 0002103  76.4628 283.6734 13.11431627133394
ONEWEB-0399             
1 50479U 21132L   24261.73804234  .00000095  00000+0  23212-3 0  9996
2 50479  87.8965 148.0428 0001480  67.6091 292.5194 13.11418144132050
ONEWEB-0400             
1 50480U 21132M   24261.95023142  .00000180  00000+0  42271-3 0  9994
2 50480  87.9059 102.3005 0001933  85.3417 274.7936 13.18688645137629
ONEWEB-0401             
1 50481U 21132N   24261.61353606  .00000052  00000+0  98642-4 0  9991
2 50481  87.9057 102.3636 0001436  87.9699 272.1597 13.18687463137583
ONEWEB-0402             
1 50482U 21132P   24262.10990957  .00000103  00000+0  22905-3 0  9998
2 50482  87.9056 102.2616 0001115 105.1975 254.9280 13.18685537138953
ONEWEB-0403             
1 50483U 21132Q   24261.60248090  .00000114  00000+0  25580-3 0  9991
2 50483  87.9060 102.3727 0001555  80.3886 279.7421 13.18688368137569
ONEWEB-0404             
1 50484U 21132R   24261.71937246 -.00000551  00000+0 -15908-2 0  9991
2 50484  87.8974 148.0256 0001823  60.8707 299.2603 13.11414464132145
ONEWEB-0405             
1 50485U 21132S   24261.92177178 -.00000097  00000+0 -27830-3 0  9998
2 50485  87.9059 102.2985 0001298  89.6325 270.4956 13.18686789138004
ONEWEB-0406             
1 50486U 21132T   24261.91071852  .00000094  00000+0  20536-3 0  9991
2 50486  87.9059 102.3143 0002192  69.8452 290.2916 13.18688380137630
ONEWEB-0407             
1 50487U 21132U   24261.60089744  .00000086  00000+0  18557-3 0  9998
2 50487  87.9056 102.3737 0001513  82.7668 277.3636 13.18686942137532
ONEWEB-0409             
1 50488U 21132V   24261.64139299 -.00000515  00000+0 -14891-2 0  9999
2 50488  87.8966 148.0299 0002060  66.3929 293.7415 13.11416312132029
ONEWEB-0412             
1 50489U 21132W   24261.58983406  .00000124  00000+0  28128-3 0  9993
2 50489  87.9062 102.3801 0001242  90.7022 269.4253 13.18686038137628
ONEWEB-0413             
1 50490U 21132X   24261.59457629  .00000090  00000+0  19533-3 0  9991
2 50490  87.9062 102.3917 0001417  95.3603 264.7691 13.18687090137564
ONEWEB-0414             
1 50491U 21132Y   24261.58035250  .00000047  00000+0  85708-4 0  9993
2 50491  87.9058 102.3694 0001421  81.3843 278.7450 13.18684887137590
ONEWEB-0417             
1 50492U 21132Z   24261.58825494  .00000059  00000+0  11627-3 0  9992
2 50492  87.9066 102.3770 0001783  76.6724 283.4607 13.18686783137573
ONEWEB-0418             
1 50493U 21132AA  24261.59759832  .00000085  00000+0  18372-3 0  9999
2 50493  87.9062 102.3748 0001852  69.2563 290.8768 13.18686544137633
ONEWEB-0419             
1 50494U 21132AB  24262.07039019  .00000073  00000+0  15363-3 0  9996
2 50494  87.9053 102.2941 0002154  81.7449 278.3927 13.18686130138906
ONEWEB-0420             
1 50495U 21132AC  24261.58192975  .00000062  00000+0  12529-3 0  9992
2 50495  87.9058 102.4006 0001632  94.8867 265.2452 13.18686730137548
ONEWEB-0421             
1 50496U 21132AD  24261.65148417  .00000007  00000+0 -13762-4 0  9994
2 50496  87.9065 102.3593 0001304  82.6681 277.4599 13.18686443137595
ONEWEB-0424             
1 50497U 21132AE  24261.61038666  .00000078  00000+0  16555-3 0  9994
2 50497  87.9060 102.3694 0002236  82.8583 277.2803 13.18685757137617
ONEWEB-0426             
1 50498U 21132AF  24261.95182159  .00000150  00000+0  34657-3 0  9993
2 50498  87.9056 102.3146 0001464  63.0875 297.0406 13.18688169137600
ONEWEB-0427             
1 50499U 21132AG  24262.06403699 -.00000200  00000+0 -53949-3 0  9995
2 50499  87.9056 102.2709 0001811  75.7877 284.3456 13.18684687138946
ONEWEB-0429             
1 50500U 21132AH  24262.12729180  .00000160  00000+0  37205-3 0  9991
2 50500  87.9064 102.2700 0001690  91.5063 268.6263 13.18687867138918
ONEWEB-0430             
1 50501U 21132AJ  24261.58508035  .00000067  00000+0  13818-3 0  9995
2 50501  87.9061 102.3797 0002128  90.4887 269.6489 13.18687007137592
ONEWEB-0432             
1 50502U 21132AK  24262.07194111 -.00004459  00000+0 -11344-1 0  9998
2 50502  87.9055 102.2740 0002123  88.7796 271.3579 13.18710471138916
ONEWEB-0440             
1 50503U 21132AL  24262.05930430  .00000134  00000+0  30774-3 0  9993
2 50503  87.9061 102.2683 0001226  96.0444 264.0828 13.18688841138893
ONEWEB-0450             
1 50504U 21132AM  24261.59788117  .00000045  00000+0  82218-4 0  9997
2 50504  87.9061 102.3888 0001897  96.7851 263.3497 13.18685199137576
ONEWEB-0410             
1 51622U 22012A   24262.18865077 -.00000348  00000+0 -92938-3 0  9991
2 51622  87.9125 132.7350 0002058  33.0300 327.0959 13.17645854131100
ONEWEB-0411             
1 51623U 22012B   24261.80968200  .00000342  00000+0  94396-3 0  9994
2 51623  87.8984 163.1034 0002457  81.1238 279.0167 13.10371130125811
ONEWEB-0415             
1 51624U 22012C   24261.80636244  .00000460  00000+0  12827-2 0  9994
2 51624  87.8978 163.1217 0002151  75.7268 284.4099 13.10370791125817
ONEWEB-0416             
1 51625U 22012D   24261.74162593  .00000641  00000+0  18001-2 0  9990
2 51625  87.8983 163.1352 0001802  70.5307 289.6015 13.10369667125841
ONEWEB-0422             
1 51626U 22012E   24261.66677802 -.00000027  00000+0 -10219-3 0  9990
2 51626  87.9133 132.8403 0001547 105.6739 254.4563 13.17649034129854
ONEWEB-0423             
1 51627U 22012F   24261.66031219  .00000112  00000+0  25434-3 0  9995
2 51627  87.9137 132.8442 0001651  77.7750 282.3566 13.17652021129741
ONEWEB-0425             
1 51628U 22012G   24261.75156425 -.00000537  00000+0 -15740-2 0  9994
2 51628  87.8982 163.1133 0001635  62.6266 297.5027 13.10370454125847
ONEWEB-0428             
1 51629U 22012H   24261.73166515  .00000405  00000+0  11240-2 0  9997
2 51629  87.8983 163.1342 0001931  83.0782 277.0565 13.10371163125804
ONEWEB-0431             
1 51630U 22012J   24261.77800305  .00000165  00000+0  43631-3 0  9998
2 51630  87.8982 163.1158 0002360  87.0554 273.0843 13.10375353125864
ONEWEB-0434             
1 51631U 22012K   24262.13667332 -.00000455  00000+0 -13404-2 0  9999
2 51631  87.8984 163.0659 0001693  77.5120 282.6197 13.10371518127187
ONEWEB-0435             
1 51632U 22012L   24261.76318555 -.00000610  00000+0 -17832-2 0  9990
2 51632  87.8989 163.1312 0001663  87.8258 272.3060 13.10374586125836
ONEWEB-0436             
1 51633U 22012M   24261.65225149  .00000073  00000+0  15370-3 0  9992
2 51633  87.9133 132.8466 0001694  85.1658 274.9667 13.17647531129724
ONEWEB-0438             
1 51634U 22012N   24262.12837683 -.00000097  00000+0 -31374-3 0  9998
2 51634  87.8981 163.0593 0001761  66.9606 293.1707 13.10369804127203
ONEWEB-0439             
1 51635U 22012P   24261.74990668 -.00000501  00000+0 -14717-2 0  9990
2 51635  87.8984 163.1201 0001791  75.6799 284.4527 13.10371186125844
ONEWEB-0442             
1 51636U 22012Q   24261.64497380  .00000032  00000+0  49105-4 0  9991
2 51636  87.9135 132.8863 0002014  57.3034 302.8291 13.17646705129711
ONEWEB-0443             
1 51637U 22012R   24261.66354436 -.00000371  00000+0 -98867-3 0  9994
2 51637  87.9136 132.8911 0001541  83.9846 276.1461 13.17654782129768
ONEWEB-0444             
1 51638U 22012S   24262.12174695  .00000213  00000+0  57278-3 0  9998
2 51638  87.8977 163.0635 0001700  79.3605 280.7714 13.10370431127195
ONEWEB-0445             
1 51639U 22012T   24262.14330984 -.00000539  00000+0 -15792-2 0  9993
2 51639  87.8977 163.0269 0002020  68.9841 291.1502 13.10372356127190
ONEWEB-0446             
1 51640U 22012U   24261.81465447  .00000066  00000+0  15411-3 0  9993
2 51640  87.8984 163.1246 0002096  71.4830 288.6525 13.10369426125857
ONEWEB-0448             
1 51641U 22012V   24261.74327107 -.00000180  00000+0 -55309-3 0  9995
2 51641  87.8981 163.1393 0001750  77.8786 282.2538 13.10369862125818
ONEWEB-0449             
1 51642U 22012W   24261.74824666 -.00000443  00000+0 -13062-2 0  9999
2 51642  87.8977 163.1285 0001742  66.0116 294.1194 13.10370311125824
ONEWEB-0451             
1 51643U 22012X   24262.18055679  .00000161  00000+0  38169-3 0  9990
2 51643  87.9128 132.7372 0001684  79.3818 280.7503 13.17646520131078
ONEWEB-0452             
1 51644U 22012Y   24262.17893615 -.00001409  00000+0 -36634-2 0  9992
2 51644  87.9129 132.7828 0001547  71.2279 288.9021 13.17659262131089
